NORAD_CAT_ID,OBJECT_NAME,OBJECT_TYPE,EPOCH,MEAN_MOTION,ECCENTRICITY,INCLINATION,RA_OF_ASC_NODE,ARG_OF_PERICENTER,MEAN_ANOMALY,BSTAR,MEAN_MOTION_DOT,MEAN_MOTION_DDOT,TLE_LINE0,TLE_LINE1,TLE_LINE2,SEMIMAJOR_AXIS,PERIOD,APOGEE,PERIGEE,DECAYED
51894.0,STARLINK-3595,PAYLOAD,2023-09-07 16:38:56,15.08801266,9.91e-05,53.2157,142.2117,99.7423,260.3681,0.00063349,9.798e-05,0.0,0 STARLINK-3595,1 51894U 22022AU  23250.69371073  .00009798  00000-0  63349-3 0  9994,2 51894  53.2157 142.2117 0000991  99.7423 260.3681 15.08801266 85324,6917.999,95.44,540.549,539.178,0.0
51894.0,STARLINK-3595,PAYLOAD,2023-09-07 19:49:41,15.08844955,0.0001074,53.2171,141.6148,96.2696,263.8419,-4.7104e-05,-1.037e-05,0.0,0 STARLINK-3595,1 51894U 22022AU  23250.82617698 -.00001037  00000-0 -47104-4 0  9997,2 51894  53.2171 141.6148 0001074  96.2696 263.8419 15.08844955 85345,6917.865,95.437,540.473,538.987,0.0
51894.0,STARLINK-3595,PAYLOAD,2023-09-08 00:35:50,15.08847392,0.0001028,53.2173,140.7225,97.297,262.8139,-6.3043e-05,-1.291e-05,0.0,0 STARLINK-3595,1 51894U 22022AU  23251.02489499 -.00001291  00000-0 -63043-4 0  9998,2 51894  53.2173 140.7225 0001028  97.2970 262.8139 15.08847392 85377,6917.858,95.437,540.434,539.012,0.0
51894.0,STARLINK-3595,PAYLOAD,2023-09-08 21:15:51,15.08837747,0.0001135,53.2167,136.8572,94.7174,265.3948,-4.5137e-06,-3.6e-06,0.0,0 STARLINK-3595,1 51894U 22022AU  23251.88601788 -.00000360  00000-0 -45137-5 0  9990,2 51894  53.2167 136.8572 0001135  94.7174 265.3948 15.08837747 85502,6917.887,95.438,540.537,538.967,0.0
51894.0,STARLINK-3595,PAYLOAD,2023-09-09 02:02:00,15.08847119,0.0001244,53.2165,135.9644,94.1173,265.9961,-8.4196e-06,-4.22e-06,0.0,0 STARLINK-3595,1 51894U 22022AU  23252.08473240 -.00000422  00000-0 -84196-5 0  9990,2 51894  53.2165 135.9644 0001244  94.1173 265.9961 15.08847119 85532,6917.859,95.437,540.584,538.863,0.0
51894.0,STARLINK-3595,PAYLOAD,2023-09-09 09:58:57,15.08834553,0.0001344,53.217,134.4759,99.8811,260.2333,2.8393e-05,1.64e-06,0.0,0 STARLINK-3595,1 51894U 22022AU  23252.41593940  .00000164  00000-0  28393-4 0  9994,2 51894  53.2170 134.4759 0001344  99.8811 260.2333 15.08834553 85585,6917.897,95.438,540.692,538.832,0.0
51894.0,STARLINK-3595,PAYLOAD,2023-09-09 13:09:43,15.08832772,0.0001239,53.2163,133.8838,91.2941,268.8193,2.5552e-05,1.19e-06,0.0,0 STARLINK-3595,1 51894U 22022AU  23252.54842113  .00000119  00000-0  25552-4 0  9991,2 51894  53.2163 133.8838 0001239  91.2941 268.8193 15.08832772 85603,6917.902,95.438,540.625,538.91,0.0
51894.0,STARLINK-3595,PAYLOAD,2023-09-09 22:42:02,15.08836925,0.0001189,53.2166,132.0995,92.2592,267.8536,5.5889e-05,6.02e-06,0.0,0 STARLINK-3595,1 51894U 22022AU  23252.94585904  .00000602  00000-0  55889-4 0  9990,2 51894  53.2166 132.0995 0001189  92.2592 267.8536 15.08836925 85668,6917.89,95.438,540.577,538.932,0.0
51894.0,STARLINK-3595,PAYLOAD,2023-09-10 19:22:03,15.08836096,0.0001215,53.2165,128.2343,87.8352,272.278,2.8293e-06,-2.43e-06,0.0,0 STARLINK-3595,1 51894U 22022AU  23253.80698447 -.00000243  00000-0  28293-5 0  9995,2 51894  53.2165 128.2343 0001215  87.8352 272.2780 15.08836096 85799,6917.892,95.438,540.598,538.917,0.0
51894.0,STARLINK-3595,PAYLOAD,2023-09-11 08:05:08,15.08840741,0.0001225,53.2173,125.8523,92.49,267.6232,5.2027e-05,5.4e-06,0.0,0 STARLINK-3595,1 51894U 22022AU  23254.33690013  .00000540  00000-0  52027-4 0  9995,2 51894  53.2173 125.8523 0001225  92.4900 267.6232 15.08840741 85874,6917.878,95.438,540.591,538.896,0.0
51894.0,STARLINK-3595,PAYLOAD,2023-09-11 22:23:36,15.08836917,0.0001154,53.2163,123.1786,91.9158,268.1966,6.7773e-05,7.91e-06,0.0,0 STARLINK-3595,1 51894U 22022AU  23254.93306411  .00000791  00000-0  67773-4 0  9999,2 51894  53.2163 123.1786 0001154  91.9158 268.1966 15.08836917 85965,6917.89,95.438,540.553,538.956,0.0
51894.0,STARLINK-3595,PAYLOAD,2023-09-12 20:39:00,15.08840598,0.0001157,53.2163,119.0155,84.5039,275.6085,5.2016e-05,5.4e-06,0.0,0 STARLINK-3595,1 51894U 22022AU  23255.86042448  .00000540  00000-0  52016-4 0  9995,2 51894  53.2163 119.0155 0001157  84.5039 275.6085 15.08840598 86100,6917.879,95.438,540.544,538.943,0.0
51894.0,STARLINK-3595,PAYLOAD,2023-09-12 22:14:23,15.08843175,0.0001168,53.2162,118.7182,87.7138,272.3988,7.0653e-05,8.37e-06,0.0,0 STARLINK-3595,1 51894U 22022AU  23255.92666227  .00000837  00000-0  70653-4 0  9995,2 51894  53.2162 118.7182 0001168  87.7138 272.3988 15.08843175 86113,6917.871,95.437,540.544,538.928,0.0
51894.0,STARLINK-3595,PAYLOAD,2023-09-13 17:19:00,15.08872334,0.000149,53.2165,115.1496,79.3479,280.7681,-0.00026244,-4.466e-05,0.0,0 STARLINK-3595,1 51894U 22022AU  23256.72153072 -.00004466  00000-0 -26244-3 0  9993,2 51894  53.2165 115.1496 0001490  79.3479 280.7681 15.08872334 86233,6917.782,95.436,540.677,538.616,0.0
51894.0,STARLINK-3595,PAYLOAD,2023-09-13 22:05:09,15.08852143,0.0001217,53.2165,114.2574,81.8214,278.2916,0.00013237,1.82e-05,0.0,0 STARLINK-3595,1 51894U 22022AU  23256.92025289  .00001820  00000-0  13237-3 0  9990,2 51894  53.2165 114.2574 0001217  81.8214 278.2916 15.08852143 86264,6917.843,95.437,540.55,538.866,0.0
51894.0,STARLINK-3595,PAYLOAD,2023-09-13 23:40:32,15.08854696,0.0001221,53.2164,113.9601,83.8987,276.2145,0.00015287,2.147e-05,0.0,0 STARLINK-3595,1 51894U 22022AU  23256.98649039  .00002147  00000-0  15287-3 0  9991,2 51894  53.2164 113.9601 0001221  83.8987 276.2145 15.08854696 86272,6917.835,95.437,540.545,538.856,0.0
51894.0,STARLINK-3595,PAYLOAD,2023-09-14 13:59:02,15.08835989,0.0001654,53.2166,111.2834,79.4953,280.6225,-1.5045e-05,-5.27e-06,0.0,0 STARLINK-3595,1 51894U 22022AU  23257.58266975 -.00000527  00000-0 -15045-4 0  9997,2 51894  53.2166 111.2834 0001654  79.4953 280.6225 15.08835989 86369,6917.893,95.438,540.902,538.613,0.0
51894.0,STARLINK-3595,PAYLOAD,2023-09-14 18:45:12,15.08831292,0.0001223,53.2168,110.3916,78.1439,281.9691,-4.9951e-05,-1.083e-05,0.0,0 STARLINK-3595,1 51894U 22022AU  23257.78139353 -.00001083  00000-0 -49951-4 0  9999,2 51894  53.2168 110.3916 0001223  78.1439 281.9691 15.08831292 86396,6917.907,95.438,540.618,538.926,0.0
51894.0,STARLINK-3595,PAYLOAD,2023-09-14 20:20:35,15.08832988,0.0001322,53.2167,110.0939,79.0251,281.089,-3.9362e-05,-9.14e-06,0.0,0 STARLINK-3595,1 51894U 22022AU  23257.84763242 -.00000914  00000-0 -39362-4 0  9993,2 51894  53.2167 110.0939 0001322  79.0251 281.0890 15.08832988 86406,6917.902,95.438,540.681,538.852,0.0
51894.0,STARLINK-3595,PAYLOAD,2023-09-14 21:55:58,15.08834559,0.0001341,53.2169,109.7965,75.868,284.2461,-2.7366e-05,-7.23e-06,0.0,0 STARLINK-3595,1 51894U 22022AU  23257.91387163 -.00000723  00000-0 -27366-4 0  9994,2 51894  53.2169 109.7965 0001341  75.8680 284.2461 15.08834559 86419,6917.897,95.438,540.69,538.834,0.0
51894.0,STARLINK-3595,PAYLOAD,2023-09-15 17:00:35,15.08847676,0.0001307,53.217,106.2274,84.725,275.3891,3.2058e-06,-2.37e-06,0.0,0 STARLINK-3595,1 51894U 22022AU  23258.70874276 -.00000237  00000-0  32058-5 0  9992,2 51894  53.2170 106.2274 0001307  84.7250 275.3891 15.08847676 86535,6917.857,95.437,540.626,538.818,0.0
51894.0,STARLINK-3595,PAYLOAD,2023-09-15 23:22:07,15.08855346,0.0001341,53.2171,105.0373,84.607,275.5075,7.8061e-05,9.55e-06,0.0,0 STARLINK-3595,1 51894U 22022AU  23258.97369496  .00000955  00000-0  78061-4 0  9993,2 51894  53.2171 105.0373 0001341  84.6070 275.5075 15.08855346 86573,6917.833,95.437,540.626,538.771,0.0
51894.0,STARLINK-3595,PAYLOAD,2023-09-16 16:51:22,15.08836542,0.0001365,53.217,101.7667,84.2514,275.8634,0.00014493,2.019e-05,0.0,0 STARLINK-3595,1 51894U 22022AU  23259.70234766  .00002019  00000-0  14493-3 0  9997,2 51894  53.2170 101.7667 0001365  84.2514 275.8634 15.08836542 86689,6917.891,95.438,540.7,538.812,0.0
51894.0,STARLINK-3595,PAYLOAD,2023-09-16 20:02:08,15.08839715,0.0001361,53.2169,101.1721,88.2747,271.8401,0.00017744,2.537e-05,0.0,0 STARLINK-3595,1 51894U 22022AU  23259.83482614  .00002537  00000-0  17744-3 0  9995,2 51894  53.2169 101.1721 0001361  88.2747 271.8401 15.08839715 86706,6917.881,95.438,540.688,538.805,0.0
51894.0,STARLINK-3595,PAYLOAD,2023-09-17 18:17:32,15.08846574,0.0001337,53.2166,97.0093,87.8586,272.2559,3.9904e-05,3.47e-06,0.0,0 STARLINK-3595,1 51894U 22022AU  23260.76218544  .00000347  00000-0  39904-4 0  9998,2 51894  53.2166  97.0093 0001337  87.8586 272.2559 15.08846574 86842,6917.86,95.437,540.65,538.8,0.0
51894.0,STARLINK-3595,PAYLOAD,2023-09-17 19:52:55,15.08848636,0.0001331,53.2168,96.7114,89.289,270.8254,5.8953e-05,6.51e-06,0.0,0 STARLINK-3595,1 51894U 22022AU  23260.82842404  .00000651  00000-0  58953-4 0  9996,2 51894  53.2168  96.7114 0001331  89.2890 270.8254 15.08848636 86850,6917.854,95.437,540.64,538.798,0.0
51894.0,STARLINK-3595,PAYLOAD,2023-09-18 18:08:20,15.08838379,0.000125,53.2168,92.5481,90.9269,269.1866,5.4973e-05,5.87e-06,0.0,0 STARLINK-3595,1 51894U 22022AU  23261.75578996  .00000587  00000-0  54973-4 0  9997,2 51894  53.2168  92.5481 0001250  90.9269 269.1866 15.08838379 86998,6917.885,95.438,540.615,538.886,0.0
51894.0,STARLINK-3595,PAYLOAD,2023-09-18 19:43:43,15.08841962,0.0001232,53.217,92.2506,89.887,270.2263,8.0196e-05,9.89e-06,0.0,0 STARLINK-3595,1 51894U 22022AU  23261.82202739  .00000989  00000-0  80196-4 0  9996,2 51894  53.2170  92.2506 0001232  89.8870 270.2263 15.08841962 87000,6917.874,95.437,540.592,538.887,0.0
51894.0,STARLINK-3595,PAYLOAD,2023-09-19 22:45:16,15.08849106,0.0001145,53.2159,87.1961,87.6048,272.5075,0.0001534,2.155e-05,0.0,0 STARLINK-3595,1 51894U 22022AU  23262.94810221  .00002155  00000-0  15340-3 0  9996,2 51894  53.2159  87.1961 0001145  87.6048 272.5075 15.08849106 87173,6917.853,95.437,540.51,538.925,0.0
51894.0,STARLINK-3595,PAYLOAD,2023-09-20 11:28:22,15.08826027,0.0001536,53.216,84.8171,85.9663,274.1505,-0.00013368,-2.414e-05,0.0,0 STARLINK-3595,1 51894U 22022AU  23263.47803821 -.00002414  00000-0 -13368-3 0  9991,2 51894  53.2160  84.8171 0001536  85.9663 274.1505 15.08826027 87252,6917.923,95.438,540.851,538.726,0.0
